#aV2011 10 23  0  0   .00000000      96 DD+AD WGS84 FIT  NGA
## 1659       .00000000   900.00000000 55857  .0000000000000
+   31     1  2  3  4  5  6  7  8  9 10 11 12 13 14 15 16 17
+         18 19 20 21 22 23 25 26 27 28 29 30 31 32  0  0  0
+          0  0  0  0  0  0  0  0  0  0  0  0  0  0  0  0  0
+          0  0  0  0  0  0  0  0  0  0  0  0  0  0  0  0  0
+          0  0  0  0  0  0  0  0  0  0  0  0  0  0  0  0  0
++         0  0  0  0  0  0  0  0  0  0  0  0  0  0  0  0  0
++         0  0  0  0  0  0  0  0  0  0  0  0  0  0  0  0  0
++         0  0  0  0  0  0  0  0  0  0  0  0  0  0  0  0  0
++         0  0  0  0  0  0  0  0  0  0  0  0  0  0  0  0  0
++         0  0  0  0  0  0  0  0  0  0  0  0  0  0  0  0  0
%c cc cc ccc ccc cccc cccc cccc cccc ccccc ccccc ccccc ccccc
%c cc cc ccc ccc cccc cccc cccc cccc ccccc ccccc ccccc ccccc
%f  0.0000000  0.000000000  0.00000000000  0.000000000000000
%f  0.0000000  0.000000000  0.00000000000  0.000000000000000
%i    0    0    0    0      0      0      0      0         0
%i    0    0    0    0      0      0      0      0         0
/*      NGA, ST. LOUIS,MO.                                  
/*   EPHEMERIS COMPUTED FROM  3 DAYS OF DATA                
/* CCCCCCCCCCCCCCCCCCCCCCCCCCCCCCCCCCCCCCCCCCCCCCCCCCCCCCCCC
/* CCCCCCCCCCCCCCCCCCCCCCCCCCCCCCCCCCCCCCCCCCCCCCCCCCCCCCCCC
*  2011 10 23 15 15   .00000000                                                 
P  1  13395.991549 -18998.969789  12830.243222     47.738481                    
V  1  -1290.211759  16425.584828  25645.186106       .268410                    
P  2 -14945.157137  -4843.245648 -21356.412286    362.154355                    
V  2   5657.963249 -26770.944332   1610.272803       .017340                    
P  3  23514.849453   9033.911986   8421.030077    785.206775                    
V  3   7229.149977   9279.286047 -28319.356792       .051089                    
P  4  -8747.877547 -18283.369177 -17221.350249    269.126012                    
V  4   7041.802019 -20570.072566  18848.889017       .113041                    
P  5 -25018.819758    998.385130  -9059.033762   -235.579186                    
V  5  10152.370818  -5952.744215 -28618.592884      -.050855                    
P  6  22549.966029  13037.437163   5982.257976    -44.214956                    
V  6   3629.966874   7203.338599 -29808.424427       .068525                    
P  7   5861.553875 -25762.375149    537.169439     33.314171                    
V  7   2646.869135    -45.315462 -32230.182705       .020278                    
P  8    398.531845 -23919.897059  10929.257845       .039818                    
V  8   6096.592778 -12691.512717 -28678.972838       .000219                    
P  9 -13889.601888  16094.078928  15390.417085    113.632097                    
V  9   2685.925669 -20374.954533  22899.982844       .024638                    
P 10 -12082.965419 -12011.934210 -20687.647721    -17.002966                    
V 10  24524.813662  -7772.771278  -9534.204204      -.011683                    
P 11  13895.620437 -13505.836783  17676.262501   -197.349110                    
V 11   3647.115166  23459.011086  15102.987535      -.034216                    
P 12 -22273.476407  11917.622642  -7905.714251     30.275334                    
V 12 -10319.324625    569.662550  30068.030175       .023140                    
P 13   2525.761966 -17120.097473 -20259.818031    245.190712                    
V 13  17631.931737  18269.080735 -13408.629265      -.019310                    
P 14  14353.344940  21499.843366   6607.513439    178.085705                    
V 14  -6989.105599  -4538.872243  30630.752041       .016457                    
P 15 -17717.791751   3063.113553  19615.217068   -101.618054                    
V 15 -17709.269019 -17513.786668 -13085.034596       .012487                    
P 16  25300.440773   -812.467841  -8506.876362   -204.947941                    
V 16  -9875.346615   4568.607708 -29470.326026      -.021012                    
P 17 -14395.226392 -21340.498191   7172.882459    169.280607                    
V 17   7996.270775   4516.618877  29863.259515      -.017803                    
P 18  -5260.696525  16993.345890  19959.114134    163.544888                    
V 18 -24241.570496   5536.475332 -11663.914470       .018372                    
P 19  18896.638510   1289.843975  18735.390139   -197.278817                    
V 19  14977.335901  18452.026961 -15989.702951      -.039583                    
P 20  20938.573918 -14016.278956  -8432.389222     54.849601                    
V 20  11121.549434   -262.849379  28617.134971       .006162                    
P 21  -2488.302980  25757.847129   4763.498860   -179.772672                    
V 21  -5296.396460   4542.000409 -30689.859331      -.024877                    
P 22  10024.344629  13323.933328  20871.445825    143.752320                    
V 22 -24957.887778   8005.419653   6825.639194      -.001745                    
P 23  11198.012663 -10270.386349 -21767.428842    265.519222                    
V 23  20071.815831  19068.583074    971.544383      -.031878                    
P 25 -13482.750549  16117.852225 -16251.851786     24.734951                    
V 25 -20153.102141   4577.083911  21319.703573       .017335                    
P 26 -20797.494242 -10319.168913  12651.004210   -200.600297                    
V 26 -10217.302590 -13496.694131 -26184.548192      -.132239                    
P 27 -15400.988636   8949.719128  20215.541034    318.103028                    
V 27   3483.691280 -24103.200137  14149.276087       .040365                    
P 28  -6021.138174 -14010.045660  22292.549772     77.986922                    
V 28  26094.102756  -6819.340876   2584.164052       .032952                    
P 29  -2436.775478  17304.195631 -19950.448206    250.969835                    
V 29 -18700.127198 -17308.427662 -12648.283221       .033746                    
P 30   7564.416524  13578.620912 -21939.520368     64.161958                    
V 30 -24749.850433  10621.117292  -2001.417007      -.075584                    
P 31   9570.398027  15223.532607 -19269.920083    159.405602                    
V 31  -7083.235396  23924.811755  15433.586298       .052803                    
P 32  25482.933181  -6377.893902  -1271.677566   -350.118448                    
V 32   2623.605414   2959.929764  31835.618161      -.061561                    
EOF
